     2.100          NAVIGATION                              RINEX VERSION / TYPE
fic2rin                                 11/02/2017 00:04:13 PGM / RUN BY / DATE
                                                            END OF HEADER
18 17 11  1  1 59 44.0  .632125884295D-03  .454747350886D-12  .000000000000D+00
     .230000000000D+02 -.711875000000D+02  .538272421207D-08  .147914081672D+00
    -.376626849174D-05  .181536419550D-01  .964850187302D-05  .515363834000D+04
     .266384000000D+06 -.311061739922D-06  .200140663501D+01  .856816768646D-07
     .925860525121D+00  .179031250000D+03 -.177567915658D+01 -.880072372833D-08
    -.410374236591D-09  .100000000000D+01  .197300000000D+04  .000000000000D+00
     .240000000000D+01  .000000000000D+00 -.111758708954D-07  .230000000000D+02
     .259206000000D+06  .400000000000D+01
21 17 11  1  1 59 44.0 -.466203782707D-03  .341060513165D-11  .000000000000D+00
     .300000000000D+02 -.134375000000D+01  .552558730575D-08  .105462533098D+01
    -.450760126114D-06  .240455419989D-01  .422075390816D-05  .515356960106D+04
     .266384000000D+06 -.415369868279D-06  .961278579351D+00 -.333413481712D-06
     .941179268443D+00  .295718750000D+03 -.162914635191D+01 -.906359182069D-08
     .339299847486D-10  .100000000000D+01  .197300000000D+04  .000000000000D+00
     .240000000000D+01  .000000000000D+00 -.977888703346D-08  .300000000000D+02
     .259206000000D+06  .400000000000D+01
23 17 11  1  1 59 44.0 -.218454282731D-03 -.227373675443D-12  .000000000000D+00
     .260000000000D+02  .677812500000D+02  .474698344520D-08 -.271975617900D+01
     .326335430145D-05  .118614896201D-01  .112019479275D-04  .515366253090D+04
     .266384000000D+06  .949949026108D-07  .308800100067D+01 -.242143869400D-06
     .944450932584D+00  .156125000000D+03 -.241655432922D+01 -.797854662421D-08
     .439661170795D-09  .100000000000D+01  .197300000000D+04  .000000000000D+00
     .240000000000D+01  .000000000000D+00 -.204890966415D-07  .260000000000D+02
     .259206000000D+06  .400000000000D+01
 1 17 11  1  2  0  0.0 -.757351517677D-05 -.238742359215D-11  .000000000000D+00
     .680000000000D+02  .459375000000D+01  .467090884782D-08  .273743438975D+01
     .150874257088D-06  .709210464265D-02  .355206429958D-05  .515367182922D+04
     .266400000000D+06 -.335276126862D-07  .100973591793D+01 -.428408384323D-07
     .968708237032D+00  .315562500000D+03  .633001373037D+00 -.828641659108D-08
     .115361948145D-09  .100000000000D+01  .197300000000D+04  .000000000000D+00
     .340000000000D+01  .000000000000D+00  .558793544769D-08  .680000000000D+02
     .259206000000D+06  .400000000000D+01
 2 17 11  1  2  0  0.0  .292277429253D-03 -.954969436862D-11  .000000000000D+00
     .610000000000D+02  .371875000000D+01  .500163690968D-08 -.312123797131D+01
     .255182385445D-06  .172140288632D-01  .326894223690D-05  .515360997772D+04
     .266400000000D+06  .195577740669D-06  .952991187931D+00 -.201165676117D-06
     .947740034708D+00  .305968750000D+03 -.194362360036D+01 -.824677208259D-08
     .156077929844D-09  .100000000000D+01  .197300000000D+04  .000000000000D+00
     .240000000000D+01  .000000000000D+00 -.204890966415D-07  .610000000000D+02
     .259206000000D+06  .400000000000D+01
 3 17 11  1  2  0  0.0 -.484241172671D-04  .522959453519D-11  .000000000000D+00
     .240000000000D+02 -.807500000000D+02  .440339770490D-08  .168509097398D+01
    -.423565506935D-05  .108603190165D-02  .991486012936D-05  .515363250923D+04
     .266400000000D+06  .167638063431D-07  .205280150578D+01 -.521540641785D-07
     .960096620541D+00  .185562500000D+03  .570318705366D+00 -.804283501636D-08
    -.393587823084D-09  .100000000000D+01  .197300000000D+04  .000000000000D+00
     .240000000000D+01  .000000000000D+00  .232830643654D-08  .240000000000D+02
     .259206000000D+06  .400000000000D+01
 5 17 11  1  2  0  0.0 -.241799280047D-04  .125055521494D-11  .000000000000D+00
     .330000000000D+02 -.664375000000D+02  .475448375762D-08 -.608435660587D+00
    -.333599746227D-05  .526301469654D-02  .912323594093D-05  .515358527565D+04
     .266400000000D+06  .502914190292D-07  .203382805223D+01  .763684511185D-07
     .947009002840D+00  .194062500000D+03  .619221817028D+00 -.826713007344D-08
    -.318584698903D-09  .100000000000D+01  .197300000000D+04  .000000000000D+00
     .240000000000D+01  .000000000000D+00 -.107102096081D-07  .330000000000D+02
     .259206000000D+06  .400000000000D+01
 6 17 11  1  2  0  0.0  .407628715038D-03  .193267624127D-11  .000000000000D+00
     .770000000000D+02 -.350000000000D+01  .464555064869D-08  .301150105564D+01
    -.484287738800D-07  .593151198700D-03  .373274087906D-05  .515377115822D+04
     .266400000000D+06  .745058059692D-08  .100138559909D+01 -.298023223877D-07
     .968463689794D+00  .312781250000D+03 -.124991646523D+01 -.828998816843D-08
     .110004582132D-09  .100000000000D+01  .197300000000D+04  .000000000000D+00
     .240000000000D+01  .000000000000D+00  .465661287308D-08  .770000000000D+02
     .259206000000D+06  .400000000000D+01
 7 17 11  1  2  0  0.0  .285652466118D-03 -.511590769747D-11  .000000000000D+00
     .270000000000D+02  .253125000000D+02  .509878381338D-08  .209518149644D+01
     .124052166939D-05  .110776426736D-01  .333040952682D-05  .515370940590D+04
     .266400000000D+06 -.268220901489D-06 -.211734897560D+01 -.316649675369D-07
     .960562241033D+00  .318812500000D+03 -.254871402081D+01 -.849749681199D-08
     .750031241812D-10  .100000000000D+01  .197300000000D+04  .000000000000D+00
     .240000000000D+01  .000000000000D+00 -.111758708954D-07  .270000000000D+02
     .259206000000D+06  .400000000000D+01
 8 17 11  1  2  0  0.0 -.790213234723D-04 -.136424205266D-11  .000000000000D+00
     .230000000000D+02  .485000000000D+02  .414874424042D-08 -.824215822732D+00
     .259093940258D-05  .278530712239D-02  .111777335405D-04  .515371481895D+04
     .266400000000D+06 -.298023223877D-07 -.537252978057D-01 -.409781932831D-07
     .968283904477D+00  .169531250000D+03 -.632480625402D+00 -.791640117846D-08
     .351443210449D-09  .100000000000D+01  .197300000000D+04  .000000000000D+00
     .240000000000D+01  .000000000000D+00  .558793544769D-08  .230000000000D+02
     .259206000000D+06  .400000000000D+01
 9 17 11  1  2  0  0.0  .465676188469D-03  .511590769747D-11  .000000000000D+00
     .220000000000D+02  .602812500000D+02  .464983654150D-08 -.111957300984D+01
     .316649675369D-05  .950859743170D-03  .110603868961D-04  .515374917984D+04
     .266400000000D+06  .242143869400D-07  .308766174850D+01 -.372529029846D-07
     .953606704861D+00  .167031250000D+03  .178521375149D+01 -.805283543292D-08
     .384658879729D-09  .100000000000D+01  .197300000000D+04  .000000000000D+00
     .240000000000D+01  .000000000000D+00  .931322574615D-09  .220000000000D+02
     .259206000000D+06  .400000000000D+01
10 17 11  1  2  0  0.0  .101294368505D-03  .818545231596D-11  .000000000000D+00
     .230000000000D+02 -.698125000000D+02  .444054210926D-08  .757621215565D+00
    -.361353158951D-05  .290366250556D-02  .103618949652D-04  .515367492867D+04
     .266400000000D+06  .242143869400D-07  .204920106689D+01  .800937414169D-07
     .960227351289D+00  .178812500000D+03 -.288649512270D+01 -.806247869174D-08
    -.396087927223D-09  .100000000000D+01  .197300000000D+04  .000000000000D+00
     .240000000000D+01  .000000000000D+00  .186264514923D-08  .230000000000D+02
     .259206000000D+06  .400000000000D+01
11 17 11  1  2  0  0.0 -.724223908037D-03 -.193267624127D-11  .000000000000D+00
     .220000000000D+02  .585937500000D+02  .598060625911D-08  .211081212220D+01
     .288337469101D-05  .169860119931D-01  .408664345741D-05  .515373419380D+04
     .266400000000D+06  .234693288803D-06  .596618989541D+00 -.596046447754D-07
     .902788114097D+00  .263156250000D+03  .171427223101D+01 -.873822112484D-08
     .298941023522D-09  .100000000000D+01  .197300000000D+04  .000000000000D+00
     .240000000000D+01  .000000000000D+00 -.121071934700D-07  .220000000000D+02
     .259206000000D+06  .400000000000D+01
12 17 11  1  2  0  0.0  .366756226867D-03 -.159161572810D-11  .000000000000D+00
     .470000000000D+02 -.535625000000D+02  .387623288923D-08  .149966750891D+01
    -.287033617496D-05  .655596039724D-02  .983290374279D-05  .515369973183D+04
     .266400000000D+06 -.162050127983D-06 -.102891194028D+01  .558793544769D-07
     .988150795738D+00  .205250000000D+03  .909100965487D+00 -.779496754883D-08
    -.449304429619D-09  .100000000000D+01  .197300000000D+04  .000000000000D+00
     .240000000000D+01  .000000000000D+00 -.125728547573D-07  .470000000000D+02
     .259206000000D+06  .400000000000D+01
13 17 11  1  2  0  0.0 -.934409908950D-04 -.454747350886D-12  .000000000000D+00
     .680000000000D+02  .803437500000D+02  .430196490839D-08 -.288684273106D+01
     .402517616749D-05  .357432605233D-02  .980310142040D-05  .515366216850D+04
     .266400000000D+06  .167638063431D-07 -.306700694712D+01  .204890966415D-07
     .969524981270D+00  .193843750000D+03  .169965955339D+01 -.788247119371D-08
     .404302555110D-09  .100000000000D+01  .197300000000D+04  .000000000000D+00
     .240000000000D+01  .000000000000D+00 -.116415321827D-07  .680000000000D+02
     .259206000000D+06  .400000000000D+01
14 17 11  1  2  0  0.0 -.875550322235D-04 -.909494701773D-12  .000000000000D+00
     .610000000000D+02  .835625000000D+02  .445554273410D-08 -.165754545979D+01
     .444799661636D-05  .928719120566D-02  .104252249002D-04  .515371310425D+04
     .266400000000D+06  .234693288803D-06 -.310749658430D+01  .115483999252D-06
     .962059002259D+00  .176593750000D+03 -.194970338989D+01 -.793283043423D-08
     .475734101949D-09  .100000000000D+01  .197300000000D+04  .000000000000D+00
     .240000000000D+01  .000000000000D+00 -.977888703346D-08  .610000000000D+02
     .259206000000D+06  .400000000000D+01
